ARVAKER-1               
1 63252U 25052AU  26068.64698161  .00003647  00000+0  34613-3 0  9994
2 63252  97.6986 321.8556 0002607 153.6434 206.4919 14.94134969 53746
SKYKRAFT-4D             
1 64898U 25154K   26068.75881656  .00006721  00000+0  61950-3 0  9999
2 64898  97.6775 134.9839 0004132 213.6612 146.4347 14.94999025 32439
