[{"OBJECT_NAME":"ARVAKER-1","OBJECT_ID":"2025-052AU","EPOCH":"2026-03-09T15:31:39.211104","MEAN_MOTION":14.94134969,"ECCENTRICITY":0.0002607,"INCLINATION":97.6986,"RA_OF_ASC_NODE":321.8556,"ARG_OF_PERICENTER":153.6434,"MEAN_ANOMALY":206.4919,"EPHEMERIS_TYPE":0,"CLASSIFICATION_TYPE":"U","NORAD_CAT_ID":63252,"ELEMENT_SET_NO":999,"REV_AT_EPOCH":5374,"BSTAR":0.00034613,"MEAN_MOTION_DOT":3.647e-5,"MEAN_MOTION_DDOT":0},{"OBJECT_NAME":"SKYKRAFT-4D","OBJECT_ID":"2025-154K","EPOCH":"2026-03-09T18:12:41.751648","MEAN_MOTION":14.94999025,"ECCENTRICITY":0.00041317,"INCLINATION":97.6775,"RA_OF_ASC_NODE":134.9839,"ARG_OF_PERICENTER":213.6612,"MEAN_ANOMALY":146.4347,"EPHEMERIS_TYPE":0,"CLASSIFICATION_TYPE":"U","NORAD_CAT_ID":64898,"ELEMENT_SET_NO":999,"REV_AT_EPOCH":3243,"BSTAR":0.00061950439,"MEAN_MOTION_DOT":6.721e-5,"MEAN_MOTION_DDOT":0}]
